[Satellite]
VERSION=1.1
NAME=METEOSAT-8 (MSG-1)
NICKNAME=METEOSAT-8 (MSG-1)
TLE1=1 27509U 02040B   20156.87723074  .00000129  00000-0  00000+0 0  9992
TLE2=2 27509   6.7045  54.1617 0002810 356.8484 199.9053  1.00271069 65160
STATUS=0
